[
    {
        "CCSDS_OMM_VERS": "3.0",
        "COMMENT": "GENERATED VIA SPACE-TRACK.ORG API",
        "CREATION_DATE": "2025-02-28T19:05:01",
        "ORIGINATOR": "18 SPCS",
        "OBJECT_NAME": "BEIDOU 3M8",
        "OBJECT_ID": "2018-029B",
        "CENTER_NAME": "EARTH",
        "REF_FRAME": "TEME",
        "TIME_SYSTEM": "UTC",
        "MEAN_ELEMENT_THEORY": "SGP4",
        "EPOCH": "2025-02-27T17:59:16.634112",
        "MEAN_MOTION": "1.86228838",
        "ECCENTRICITY": "0.00050570",
        "INCLINATION": "54.6113",
        "RA_OF_ASC_NODE": "316.5157",
        "ARG_OF_PERICENTER": "11.4180",
        "MEAN_ANOMALY": "348.6537",
        "EPHEMERIS_TYPE": "0",
        "CLASSIFICATION_TYPE": "U",
        "NORAD_CAT_ID": "43246",
        "ELEMENT_SET_NO": "999",
        "REV_AT_EPOCH": "4704",
        "BSTAR": "0.00000000000000",
        "MEAN_MOTION_DOT": "-0.00000041",
        "MEAN_MOTION_DDOT": "0.0000000000000",
        "SEMIMAJOR_AXIS": "27906.405",
        "PERIOD": "773.242",
        "APOAPSIS": "21542.382",
        "PERIAPSIS": "21514.157",
        "OBJECT_TYPE": "PAYLOAD",
        "RCS_SIZE": "LARGE",
        "COUNTRY_CODE": "PRC",
        "LAUNCH_DATE": "2018-03-29",
        "SITE": "XSC",
        "DECAY_DATE": null,
        "FILE": "4655208",
        "GP_ID": "281921017",
        "TLE_LINE0": "0 BEIDOU 3M8",
        "TLE_LINE1": "1 43246U 18029B   25058.74949808 -.00000041  00000-0  00000-0 0  9994",
        "TLE_LINE2": "2 43246  54.6113 316.5157 0005057  11.4180 348.6537  1.86228838 47048"
    }
]